TRANSPORTER-17 OBJECT BF
1 69922U 26156BF  26203.43198420  .00000268  00000+0  31951-4 0  9990
2 69922  97.7518 103.6419 0009148 101.8371 258.3875 14.91967236  2259
TRANSPORTER-17 OBJECT BG
1 69923U 26156BG  26203.90134672  .00001029  00000+0  10702-3 0  9998
2 69923  97.7512 104.1030 0009258  99.7238 260.5027 14.91986083  2321
TRANSPORTER-17 OBJECT BH
1 69924U 26156BH  26203.83284290  .00000717  00000+0  76010-4 0  9991
2 69924  97.7520 104.0408 0009871  99.8492 260.3842 14.92120866  2315
TRANSPORTER-17 OBJECT BJ
1 69925U 26156BJ  26203.83252223  .00004676  00000+0  46398-3 0  9996
2 69925  97.7507 104.0392 0010178  98.0251 262.2123 14.92197747  2314
TRANSPORTER-17 OBJECT BK
1 69926U 26156BK  26203.83192044  .00003277  00000+0  32655-3 0  9998
2 69926  97.7577 104.0530 0009889 107.5673 252.6627 14.92234758  2313
TRANSPORTER-17 OBJECT BL
1 69927U 26156BL  26203.89903410  .00000754  00000+0  79421-4 0  9992
2 69927  97.7535 104.1106 0009856 105.2907 254.9402 14.92204708  2157
TRANSPORTER-17 OBJECT BM
1 69928U 26156BM  26203.89871481  .00003632  00000+0  36110-3 0  9990
2 69928  97.7571 104.1171 0010300 104.0972 256.1393 14.92264138  2320
TRANSPORTER-17 OBJECT BN
1 69929U 26156BN  26203.83079361  .00002652  00000+0  26461-3 0  9991
2 69929  97.7545 104.0479 0010620 103.1527 257.0878 14.92346154  2319
TRANSPORTER-17 OBJECT BP
1 69930U 26156BP  26203.89755537  .00003692  00000+0  36587-3 0  9990
2 69930  97.7561 104.1176 0010584 106.5110 253.7273 14.92375201  2326
TRANSPORTER-17 OBJECT BQ
1 69931U 26156BQ  26203.89758158  .00000730  00000+0  76806-4 0  9992
2 69931  97.7517 104.1094 0010865  99.5926 260.6521 14.92344109  2321
TRANSPORTER-17 OBJECT BR
1 69932U 26156BR  26203.89751761  .00000508  00000+0  55120-4 0  9995
2 69932  97.7468 104.1004 0011092  97.4612 262.7868 14.92349363  2324
TRANSPORTER-17 OBJECT BS
1 69933U 26156BS  26203.89707669  .00003529  00000+0  34959-3 0  9996
2 69933  97.7548 104.1153 0011012 101.9264 258.3190 14.92418640  2329
TRANSPORTER-17 OBJECT BT
1 69934U 26156BT  26203.89681700  .00003303  00000+0  32734-3 0  9993
2 69934  97.7538 104.1144 0011052 104.7421 255.5023 14.92444963  2320
TRANSPORTER-17 OBJECT BU
1 69935U 26156BU  26203.82916519  .00002120  00000+0  21185-3 0  9990
2 69935  97.7479 104.0377 0011553 100.2428 260.0094 14.92492621  2318
TRANSPORTER-17 OBJECT BV
1 69936U 26156BV  26203.89628057  .00001275  00000+0  12962-3 0  9998
2 69936  97.7479 104.1035 0011521 100.1493 260.1026 14.92475592  2322
LEONAV-1                
1 69937U 26156BW  26203.89384387  .00002230  00000+0  22121-3 0  9994
2 69937  97.7509 104.1133 0012482  99.7112 260.5518 14.92720602  2329
TRANSPORTER-17 OBJECT BX
1 69938U 26156BX  26203.15863733  .00000579  00000+0  61828-4 0  9993
2 69938  97.7493 103.3818 0011587  99.1688 261.0843 14.92496732  2219
TRANSPORTER-17 OBJECT BY
1 69939U 26156BY  26203.89588879  .00000932  00000+0  96206-4 0  9991
2 69939  97.7571 104.1212 0011200 107.9582 252.2859 14.92508847  2329
TRANSPORTER-17 OBJECT BZ
1 69940U 26156BZ  26203.89493020  .00000561  00000+0  59968-4 0  9998
2 69940  97.7555 104.1188 0011913 102.5768 257.6785 14.92598029  2321
TRANSPORTER-17 OBJECT CA
1 69941U 26156CA  26203.83265986  .00004376  00000+0  43490-3 0  9991
2 69941  97.7505 104.0390 0010109  98.2230 262.0136 14.92172476  2315
TRANSPORTER-17 OBJECT CB
1 69942U 26156CB  26203.89983634  .00004028  00000+0  40101-3 0  9995
2 69942  97.7505 104.1050 0009979  97.9903 262.2448 14.92150747  2322
STARLINK-37886          
1 69943U 26157A   26203.63788504  .00165721  00000+0  82631-3 0  9990
2 69943  53.1591 258.5302 0001181  81.5563 278.5594 15.80894908  2117
STARLINK-37937          
1 69944U 26157B   26203.63628732  .00098065  00000+0  49424-3 0  9996
2 69944  53.1591 258.5198 0000849 112.6090 247.5023 15.80895846  2117
STARLINK-37903          
1 69945U 26157C   26203.63549509  .00238029  00000+0  11739-2 0  9994
2 69945  53.1590 258.5148 0001153  64.4907 295.6235 15.80921509  2117
STARLINK-37905          
1 69946U 26157D   26203.63210506  .00223515  00000+0  11045-2 0  9991
2 69946  53.1592 258.4923 0000862 116.5469 243.5642 15.80919646  2111
STARLINK-37904          
1 69947U 26157E   26203.63142232  .00113348  00000+0  56999-3 0  9992
2 69947  53.1592 258.4867 0000996  80.5552 279.5583 15.80885078  2114
STARLINK-37891          
1 69948U 26157F   26203.63067180  .00138297  00000+0  69219-3 0  9990
2 69948  53.1589 258.4816 0001762  39.3770 320.7381 15.80899398  2116
STARLINK-37923          
1 69949U 26157G   26203.62766598  .00153851  00000+0  76724-3 0  9991
2 69949  53.1589 258.4613 0002179  21.4463 338.6651 15.80927718  2112
STARLINK-37895          
1 69950U 26157H   26203.87923687  .00296858  00000+0  14509-2 0  9991
2 69950  53.1584 257.1858 0001239  73.6308 286.4851 15.80956302  2156
