OBJECT_NAME,OBJECT_ID,EPOCH,MEAN_MOTION,ECCENTRICITY,INCLINATION,RA_OF_ASC_NODE,ARG_OF_PERICENTER,MEAN_ANOMALY,EPHEMERIS_TYPE,CLASSIFICATION_TYPE,NORAD_CAT_ID,ELEMENT_SET_NO,REV_AT_EPOCH,BSTAR,MEAN_MOTION_DOT,MEAN_MOTION_DDOT
TRANSPORTER-17 OBJECT BF,2026-156BF,2026-07-22T10:22:03.434880,14.91967236,.00091484,97.7518,103.6419,101.8371,258.3875,0,U,69922,999,225,.31951314E-4,.268E-5,0
TRANSPORTER-17 OBJECT BG,2026-156BG,2026-07-22T21:37:56.356608,14.91986083,.00092581,97.7512,104.1030,99.7238,260.5027,0,U,69923,999,232,.10701807E-3,.1029E-4,0
TRANSPORTER-17 OBJECT BH,2026-156BH,2026-07-22T19:59:17.626560,14.92120866,.00098715,97.7520,104.0408,99.8492,260.3842,0,U,69924,999,231,.76009618E-4,.717E-5,0
TRANSPORTER-17 OBJECT BJ,2026-156BJ,2026-07-22T19:58:49.920672,14.92197747,.0010178,97.7507,104.0392,98.0251,262.2123,0,U,69925,999,231,.46398289E-3,.4676E-4,0
TRANSPORTER-17 OBJECT BK,2026-156BK,2026-07-22T19:57:57.926016,14.92234758,.00098895,97.7577,104.0530,107.5673,252.6627,0,U,69926,999,231,.32655171E-3,.3277E-4,0
TRANSPORTER-17 OBJECT BL,2026-156BL,2026-07-22T21:34:36.546240,14.92204708,.00098562,97.7535,104.1106,105.2907,254.9402,0,U,69927,999,215,.79421365E-4,.754E-5,0
TRANSPORTER-17 OBJECT BM,2026-156BM,2026-07-22T21:34:08.959584,14.92264138,.00103009,97.7571,104.1171,104.0972,256.1393,0,U,69928,999,232,.36110108E-3,.3632E-4,0
TRANSPORTER-17 OBJECT BN,2026-156BN,2026-07-22T19:56:20.567904,14.92346154,.00106201,97.7545,104.0479,103.1527,257.0878,0,U,69929,999,231,.26460618E-3,.2652E-4,0
TRANSPORTER-17 OBJECT BP,2026-156BP,2026-07-22T21:32:28.783968,14.92375201,.00105841,97.7561,104.1176,106.5110,253.7273,0,U,69930,999,232,.36587089E-3,.3692E-4,0
TRANSPORTER-17 OBJECT BQ,2026-156BQ,2026-07-22T21:32:31.048512,14.92344109,.00108656,97.7517,104.1094,99.5926,260.6521,0,U,69931,999,232,.76806239E-4,.73E-5,0
TRANSPORTER-17 OBJECT BR,2026-156BR,2026-07-22T21:32:25.521504,14.92349363,.00110924,97.7468,104.1004,97.4612,262.7868,0,U,69932,999,232,.55120437E-4,.508E-5,0
TRANSPORTER-17 OBJECT BS,2026-156BS,2026-07-22T21:31:47.426016,14.92418640,.00110129,97.7548,104.1153,101.9264,258.3190,0,U,69933,999,232,.3495923E-3,.3529E-4,0
TRANSPORTER-17 OBJECT BT,2026-156BT,2026-07-22T21:31:24.988800,14.92444963,.00110527,97.7538,104.1144,104.7421,255.5023,0,U,69934,999,232,.32733799E-3,.3303E-4,0
TRANSPORTER-17 OBJECT BU,2026-156BU,2026-07-22T19:53:59.872416,14.92492621,.00115531,97.7479,104.0377,100.2428,260.0094,0,U,69935,999,231,.21184665E-3,.212E-4,0
TRANSPORTER-17 OBJECT BV,2026-156BV,2026-07-22T21:30:38.641248,14.92475592,.00115212,97.7479,104.1035,100.1493,260.1026,0,U,69936,999,232,.12961822E-3,.1275E-4,0
LEONAV-1,2026-156BW,2026-07-22T21:27:08.110368,14.92720602,.00124822,97.7509,104.1133,99.7112,260.5518,0,U,69937,999,232,.22121102E-3,.223E-4,0
TRANSPORTER-17 OBJECT BX,2026-156BX,2026-07-22T03:48:26.265312,14.92496732,.00115875,97.7493,103.3818,99.1688,261.0843,0,U,69938,999,221,.61827511E-4,.579E-5,0
TRANSPORTER-17 OBJECT BY,2026-156BY,2026-07-22T21:30:04.791456,14.92508847,.00112007,97.7571,104.1212,107.9582,252.2859,0,U,69939,999,232,.96205619E-4,.932E-5,0
TRANSPORTER-17 OBJECT BZ,2026-156BZ,2026-07-22T21:28:41.969280,14.92598029,.00119139,97.7555,104.1188,102.5768,257.6785,0,U,69940,999,232,.59967633E-4,.561E-5,0
TRANSPORTER-17 OBJECT CA,2026-156CA,2026-07-22T19:59:01.811904,14.92172476,.0010109,97.7505,104.0390,98.2230,262.0136,0,U,69941,999,231,.43490001E-3,.4376E-4,0
TRANSPORTER-17 OBJECT CB,2026-156CB,2026-07-22T21:35:45.859776,14.92150747,.00099791,97.7505,104.1050,97.9903,262.2448,0,U,69942,999,232,.40101329E-3,.4028E-4,0
STARLINK-37886,2026-157A,2026-07-22T15:18:33.267456,15.80894908,.00011819,53.1591,258.5302,81.5563,278.5594,0,U,69943,999,211,.82631056E-3,.165721E-2,0
STARLINK-37937,2026-157B,2026-07-22T15:16:15.224448,15.80895846,.00008492,53.1591,258.5198,112.6090,247.5023,0,U,69944,999,211,.49423911E-3,.98065E-3,0
STARLINK-37903,2026-157C,2026-07-22T15:15:06.775776,15.80921509,.00011537,53.1590,258.5148,64.4907,295.6235,0,U,69945,999,211,.11739427E-2,.238029E-2,0
STARLINK-37905,2026-157D,2026-07-22T15:10:13.877184,15.80919646,.00008628,53.1592,258.4923,116.5469,243.5642,0,U,69946,999,211,.11045298E-2,.223515E-2,0
STARLINK-37904,2026-157E,2026-07-22T15:09:14.888448,15.80885078,.00009963,53.1592,258.4867,80.5552,279.5583,0,U,69947,999,211,.56998926E-3,.113348E-2,0
STARLINK-37891,2026-157F,2026-07-22T15:08:10.043520,15.80899398,.00017627,53.1589,258.4816,39.3770,320.7381,0,U,69948,999,211,.69219067E-3,.138297E-2,0
STARLINK-37923,2026-157G,2026-07-22T15:03:50.340672,15.80927718,.00021799,53.1589,258.4613,21.4463,338.6651,0,U,69949,999,211,.76723522E-3,.153851E-2,0
STARLINK-37895,2026-157H,2026-07-22T21:06:06.065568,15.80956302,.00012391,53.1584,257.1858,73.6308,286.4851,0,U,69950,999,215,.14508748E-2,.296858E-2,0
